{"type": "FeatureCollection", "features": [ {"type": "Feature", "properties": {"norad_id": 34141, "name": "COSMOS 2251 DEB", "group": "cosmos-2251-debris", "lat": 63.42992672273257, "lon": 56.023832985278005, "alt_km": 694.9390828746118, "timestamp": "2025-12-16T21:38:57.569081+00:00", "meta": {"OBJECT_NAME": "COSMOS 2251 DEB", "OBJECT_ID": "1993-036LN", "EPOCH": "2025-12-16T03:22:07.776192", "MEAN_MOTION": 14.49278919, "ECCENTRICITY": 0.00468976, "INCLINATION": 74.0113, "RA_OF_ASC_NODE": 22.4725, "ARG_OF_PERICENTER": 107.6333, "MEAN_ANOMALY": 308.8088, "EPHEMERIS_TYPE": 0, "CLASSIFICATION_TYPE": "U", "NORAD_CAT_ID": 34141, "ELEMENT_SET_NO": 999, "REV_AT_EPOCH": 87743, "BSTAR": 0.00095677475, "MEAN_MOTION_DOT": 3.675e-05, "MEAN_MOTION_DDOT": 0}, "tle": {"line1": "1 34141U 93036LN  25350.14036778  .00003675  00000+0  95677-3 0  9992", "line2": "2 34141  74.0113  22.4725 0046897 107.6333 308.8088 14.49278919877438"}}, "geometry": {"type": "Point", "coordinates": [56.023832985278005, 63.42992672273257]}}, {"type": "Feature", "properties": {"norad_id": 34270, "name": "COSMOS 2251 DEB", "group": "cosmos-2251-debris", "lat": -72.85163120174347, "lon": -173.08233564097853, "alt_km": 716.9084501452589, "timestamp": "2025-12-16T21:38:57.569091+00:00", "meta": {"OBJECT_NAME": "COSMOS 2251 DEB", "OBJECT_ID": "1993-036LQ", "EPOCH": "2025-12-16T07:20:33.916704", "MEAN_MOTION": 14.65199511, "ECCENTRICITY": 0.00478315, "INCLINATION": 74.0114, "RA_OF_ASC_NODE": 299.7543, "ARG_OF_PERICENTER": 91.4361, "MEAN_ANOMALY": 269.2287, "EPHEMERIS_TYPE": 0, "CLASSIFICATION_TYPE": "U", "NORAD_CAT_ID": 34270, "ELEMENT_SET_NO": 999, "REV_AT_EPOCH": 89148, "BSTAR": 0.00056275077, "MEAN_MOTION_DOT": 3.05e-05, "MEAN_MOTION_DDOT": 0}, "tle": {"line1": "1 34270U 93036LQ  25350.30594811  .00003050  00000+0  56275-3 0  9998", "line2": "2 34270  74.0114 299.7543 0047831  91.4361 269.2287 14.65199511891489"}}, "geometry": {"type": "Point", "coordinates": [-173.08233564097853, -72.85163120174347]}}, {"type": "Feature", "properties": {"norad_id": 34271, "name": "COSMOS 2251 DEB", "group": "cosmos-2251-debris", "lat": -61.51349357653355, "lon": 159.36592394196302, "alt_km": 656.6075524615317, "timestamp": "2025-12-16T21:38:57.569101+00:00", "meta": {"OBJECT_NAME": "COSMOS 2251 DEB", "OBJECT_ID": "1993-036LR", "EPOCH": "2025-12-15T23:40:37.530336", "MEAN_MOTION": 14.70832173, "ECCENTRICITY": 0.00186254, "INCLINATION": 74.0203, "RA_OF_ASC_NODE": 193.0188, "ARG_OF_PERICENTER": 246.7569, "MEAN_ANOMALY": 241.3949, "EPHEMERIS_TYPE": 0, "CLASSIFICATION_TYPE": "U", "NORAD_CAT_ID": 34271, "ELEMENT_SET_NO": 999, "REV_AT_EPOCH": 88282, "BSTAR": 0.0011984502, "MEAN_MOTION_DOT": 7.32e-05, "MEAN_MOTION_DDOT": 0}, "tle": {"line1": "1 34271U 93036LR  25349.98654549  .00007320  00000+0  11985-2 0  9998", "line2": "2 34271  74.0203 193.0188 0018625 246.7569 241.3949 14.70832173882822"}}, "geometry": {"type": "Point", "coordinates": [159.36592394196302, -61.51349357653355]}}, {"type": "Feature", "properties": {"norad_id": 34273, "name": "COSMOS 2251 DEB", "group": "cosmos-2251-debris", "lat": 9.419902461471976, "lon": -103.25239440497714, "alt_km": 682.3767019560291, "timestamp": "2025-12-16T21:38:57.569112+00:00", "meta": {"OBJECT_NAME": "COSMOS 2251 DEB", "OBJECT_ID": "1993-036LT", "EPOCH": "2025-12-16T06:14:15.136224", "MEAN_MOTION": 14.61260872, "ECCENTRICITY": 0.00139353, "INCLINATION": 74.0363, "RA_OF_ASC_NODE": 80.6969, "ARG_OF_PERICENTER": 206.71, "MEAN_ANOMALY": 186.7567, "EPHEMERIS_TYPE": 0, "CLASSIFICATION_TYPE": "U", "NORAD_CAT_ID": 34273, "ELEMENT_SET_NO": 999, "REV_AT_EPOCH": 88673, "BSTAR": 0.00065775785, "MEAN_MOTION_DOT": 3.221e-05, "MEAN_MOTION_DDOT": 0}, "tle": {"line1": "1 34273U 93036LT  25350.25989741  .00003221  00000+0  65776-3 0  9991", "line2": "2 34273  74.0363  80.6969 0013935 206.7100 186.7567 14.61260872886738"}}, "geometry": {"type": "Point", "coordinates": [-103.25239440497714, 9.419902461471976]}}, {"type": "Feature", "properties": {"norad_id": 34274, "name": "COSMOS 2251 DEB", "group": "cosmos-2251-debris", "lat": -51.11931515775514, "lon": 39.70995239816394, "alt_km": 685.710591754615, "timestamp": "2025-12-16T21:38:57.569122+00:00", "meta": {"OBJECT_NAME": "COSMOS 2251 DEB", "OBJECT_ID": "1993-036LU", "EPOCH": "2025-12-16T05:36:44.194176", "MEAN_MOTION": 14.64827768, "ECCENTRICITY": 0.00218697, "INCLINATION": 74.0047, "RA_OF_ASC_NODE": 61.8355, "ARG_OF_PERICENTER": 211.6715, "MEAN_ANOMALY": 171.7903, "EPHEMERIS_TYPE": 0, "CLASSIFICATION_TYPE": "U", "NORAD_CAT_ID": 34274, "ELEMENT_SET_NO": 999, "REV_AT_EPOCH": 88727, "BSTAR": 0.00076889923, "MEAN_MOTION_DOT": 4.09e-05, "MEAN_MOTION_DDOT": 0}, "tle": {"line1": "1 34274U 93036LU  25350.23384484  .00004090  00000+0  76890-3 0  9997", "line2": "2 34274  74.0047  61.8355 0021869 211.6715 171.7903 14.64827768887274"}}, "geometry": {"type": "Point", "coordinates": [39.70995239816394, -51.11931515775514]}}, {"type": "Feature", "properties": {"norad_id": 34276, "name": "COSMOS 2251 DEB", "group": "cosmos-2251-debris", "lat": 47.56823928021306, "lon": -120.85586527398206, "alt_km": 698.5065724876395, "timestamp": "2025-12-16T21:38:57.569132+00:00", "meta": {"OBJECT_NAME": "COSMOS 2251 DEB", "OBJECT_ID": "1993-036LW", "EPOCH": "2025-12-16T06:22:03.169344", "MEAN_MOTION": 14.57254108, "ECCENTRICITY": 0.0022468, "INCLINATION": 74.024, "RA_OF_ASC_NODE": 78.6177, "ARG_OF_PERICENTER": 225.0174, "MEAN_ANOMALY": 165.9667, "EPHEMERIS_TYPE": 0, "CLASSIFICATION_TYPE": "U", "NORAD_CAT_ID": 34276, "ELEMENT_SET_NO": 999, "REV_AT_EPOCH": 88644, "BSTAR": 0.00053366188, "MEAN_MOTION_DOT": 2.392e-05, "MEAN_MOTION_DDOT": 0}, "tle": {"line1": "1 34276U 93036LW  25350.26531446  .00002392  00000+0  53366-3 0  9990", "line2": "2 34276  74.0240  78.6177 0022468 225.0174 165.9667 14.57254108886447"}}, "geometry": {"type": "Point", "coordinates": [-120.85586527398206, 47.56823928021306]}}, {"type": "Feature", "properties": {"norad_id": 34297, "name": "COSMOS 2251 DEB", "group": "cosmos-2251-debris", "lat": -13.08606783400757, "lon": 100.40176295849056, "alt_km": 784.6685343017807, "timestamp": "2025-12-16T21:38:57.569141+00:00", "meta": {"OBJECT_NAME": "COSMOS 2251 DEB", "OBJECT_ID": "1993-036MT", "EPOCH": "2025-12-16T06:17:24.324576", "MEAN_MOTION": 14.36632589, "ECCENTRICITY": 0.00174273, "INCLINATION": 74.0487, "RA_OF_ASC_NODE": 277.7644, "ARG_OF_PERICENTER": 345.6862, "MEAN_ANOMALY": 139.4132, "EPHEMERIS_TYPE": 0, "CLASSIFICATION_TYPE": "U", "NORAD_CAT_ID": 34297, "ELEMENT_SET_NO": 999, "REV_AT_EPOCH": 88115, "BSTAR": 0.00013642214, "MEAN_MOTION_DOT": 3.76e-06, "MEAN_MOTION_DDOT": 0}, "tle": {"line1": "1 34297U 93036MT  25350.26208709  .00000376  00000+0  13642-3 0  9999", "line2": "2 34297  74.0487 277.7644 0017427 345.6862 139.4132 14.36632589881152"}}, "geometry": {"type": "Point", "coordinates": [100.40176295849056, -13.08606783400757]}}, {"type": "Feature", "properties": {"norad_id": 34299, "name": "COSMOS 2251 DEB", "group": "cosmos-2251-debris", "lat": 32.61183685064731, "lon": -24.41254511951091, "alt_km": 314.3187847224581, "timestamp": "2025-12-16T21:38:57.569152+00:00", "meta": {"OBJECT_NAME": "COSMOS 2251 DEB", "OBJECT_ID": "1993-036MV", "EPOCH": "2025-12-16T07:50:18.881952", "MEAN_MOTION": 15.80486794, "ECCENTRICITY": 0.00155594, "INCLINATION": 73.9733, "RA_OF_ASC_NODE": 326.3159, "ARG_OF_PERICENTER": 67.0299, "MEAN_ANOMALY": 293.257, "EPHEMERIS_TYPE": 0, "CLASSIFICATION_TYPE": "U", "NORAD_CAT_ID": 34299, "ELEMENT_SET_NO": 999, "REV_AT_EPOCH": 89067, "BSTAR": 0.0057695531, "MEAN_MOTION_DOT": 0.01240682, "MEAN_MOTION_DDOT": 0}, "tle": {"line1": "1 34299U 93036MV  25350.32660743  .01240682  00000+0  57696-2 0  9991", "line2": "2 34299  73.9733 326.3159 0015559  67.0299 293.2570 15.80486794890678"}}, "geometry": {"type": "Point", "coordinates": [-24.41254511951091, 32.61183685064731]}}, {"type": "Feature", "properties": {"norad_id": 34301, "name": "COSMOS 2251 DEB", "group": "cosmos-2251-debris", "lat": 39.415523671429426, "lon": -35.208297871710236, "alt_km": 609.8353845664542, "timestamp": "2025-12-16T21:38:57.569163+00:00", "meta": {"OBJECT_NAME": "COSMOS 2251 DEB", "OBJECT_ID": "1993-036MX", "EPOCH": "2025-12-15T21:20:58.113600", "MEAN_MOTION": 14.84707401, "ECCENTRICITY": 0.00110113, "INCLINATION": 74.0041, "RA_OF_ASC_NODE": 160.4404, "ARG_OF_PERICENTER": 221.9001, "MEAN_ANOMALY": 267.2778, "EPHEMERIS_TYPE": 0, "CLASSIFICATION_TYPE": "U", "NORAD_CAT_ID": 34301, "ELEMENT_SET_NO": 999, "REV_AT_EPOCH": 88447, "BSTAR": 0.0021633716, "MEAN_MOTION_DOT": 0.00018359, "MEAN_MOTION_DDOT": 0}, "tle": {"line1": "1 34301U 93036MX  25349.88956150  .00018359  00000+0  21634-2 0  9990", "line2": "2 34301  74.0041 160.4404 0011011 221.9001 267.2778 14.84707401884473"}}, "geometry": {"type": "Point", "coordinates": [-35.208297871710236, 39.415523671429426]}}, {"type": "Feature", "properties": {"norad_id": 34302, "name": "COSMOS 2251 DEB", "group": "cosmos-2251-debris", "lat": -74.05354736193505, "lon": 18.904411536722492, "alt_km": 740.7736862867923, "timestamp": "2025-12-16T21:38:57.569174+00:00", "meta": {"OBJECT_NAME": "COSMOS 2251 DEB", "OBJECT_ID": "1993-036MY", "EPOCH": "2025-12-16T08:52:02.431776", "MEAN_MOTION": 14.39345497, "ECCENTRICITY": 0.00789981, "INCLINATION": 74.1781, "RA_OF_ASC_NODE": 116.938, "ARG_OF_PERICENTER": 331.1518, "MEAN_ANOMALY": 59.1758, "EPHEMERIS_TYPE": 0, "CLASSIFICATION_TYPE": "U", "NORAD_CAT_ID": 34302, "ELEMENT_SET_NO": 999, "REV_AT_EPOCH": 87773, "BSTAR": 0.00047207297, "MEAN_MOTION_DOT": 1.495e-05, "MEAN_MOTION_DDOT": 0}, "tle": {"line1": "1 34302U 93036MY  25350.36947259  .00001495  00000+0  47207-3 0  9994", "line2": "2 34302  74.1781 116.9380 0078998 331.1518  59.1758 14.39345497877739"}}, "geometry": {"type": "Point", "coordinates": [18.904411536722492, -74.05354736193505]}}]}